NORAD_CAT_ID,OBJECT_NAME,OBJECT_TYPE,EPOCH,MEAN_MOTION,ECCENTRICITY,INCLINATION,RA_OF_ASC_NODE,ARG_OF_PERICENTER,MEAN_ANOMALY,BSTAR,MEAN_MOTION_DOT,MEAN_MOTION_DDOT,TLE_LINE0,TLE_LINE1,TLE_LINE2,SEMIMAJOR_AXIS,PERIOD,APOGEE,PERIGEE,DECAYED
53617.0,STARLINK-4601,PAYLOAD,2023-12-25 03:19:13,15.08855543,0.0001983,53.2166,250.4165,125.1866,234.9312,0.00015537,2.186e-05,0.0,0 STARLINK-4601,1 53617U 22104AF  23359.13835363  .00002186  00000-0  15537-3 0  9996,2 53617  53.2166 250.4165 0001983 125.1866 234.9312 15.08855543 73457,6917.833,95.437,541.07,538.326,0.0
53617.0,STARLINK-4601,PAYLOAD,2023-12-25 19:13:05,15.08838902,0.0002793,53.2164,247.436,130.611,229.5125,8.0425e-05,9.92e-06,0.0,0 STARLINK-4601,1 53617U 22104AF  23359.80076237  .00000992  00000-0  80425-4 0  9999,2 53617  53.2164 247.4360 0002793 130.6110 229.5125 15.08838902 73554,6917.884,95.438,541.681,537.817,0.0
53617.0,STARLINK-4601,PAYLOAD,2023-12-25 22:23:52,15.08834537,0.0001756,53.2164,246.8508,114.4906,245.627,-2.3876e-05,-6.68e-06,0.0,0 STARLINK-4601,1 53617U 22104AF  23359.93324610 -.00000668  00000-0 -23876-4 0  9993,2 53617  53.2164 246.8508 0001756 114.4906 245.6270 15.08834537 74148,6917.897,95.438,540.977,538.547,0.0
53617.0,STARLINK-4601,PAYLOAD,2023-12-26 01:34:38,15.08835358,0.0001944,53.217,246.2562,119.6483,240.4703,-1.385e-06,-3.1e-06,0.0,0 STARLINK-4601,1 53617U 22104AF  23360.06572589 -.00000310  00000-0 -13850-5 0  9995,2 53617  53.2170 246.2562 0001944 119.6483 240.4703 15.08835358 74163,6917.895,95.438,541.104,538.415,0.0
53617.0,STARLINK-4601,PAYLOAD,2023-12-26 22:14:39,15.08843711,0.0001646,53.2169,242.388,105.4398,254.6776,4.0749e-05,3.61e-06,0.0,0 STARLINK-4601,1 53617U 22104AF  23360.92684396  .00000361  00000-0  40749-4 0  9990,2 53617  53.2169 242.3880 0001646 105.4398 254.6776 15.08843711 74291,6917.869,95.437,540.873,538.595,0.0
53617.0,STARLINK-4601,PAYLOAD,2023-12-27 01:25:25,15.08848077,0.0001835,53.2165,241.7916,118.9201,241.1975,0.00010579,1.396e-05,0.0,0 STARLINK-4601,1 53617U 22104AF  23361.05932098  .00001396  00000-0  10579-3 0  9996,2 53617  53.2165 241.7916 0001835 118.9201 241.1975 15.08848077 73743,6917.856,95.437,540.99,538.451,0.0
53617.0,STARLINK-4601,PAYLOAD,2023-12-27 22:05:25,15.08852085,0.0001381,53.2153,237.9273,101.2269,258.8878,0.0003097,4.646e-05,0.0,0 STARLINK-4601,1 53617U 22104AF  23361.92043852  .00004646  00000-0  30970-3 0  9991,2 53617  53.2153 237.9273 0001381 101.2269 258.8878 15.08852085 74447,6917.843,95.437,540.664,538.753,0.0
53617.0,STARLINK-4601,PAYLOAD,2023-12-28 20:20:49,15.08840838,0.0001618,53.2149,233.7621,119.3949,240.7205,-2.8648e-05,-7.44e-06,0.0,0 STARLINK-4601,1 53617U 22104AF  23362.84780057 -.00000744  00000-0 -28648-4 0  9995,2 53617  53.2149 233.7621 0001618 119.3949 240.7205 15.08840838 74583,6917.878,95.438,540.862,538.624,0.0
53617.0,STARLINK-4601,PAYLOAD,2023-12-29 21:47:00,15.08838031,0.0001496,53.2156,229.0085,64.4881,295.6265,5.3012e-05,5.56e-06,0.0,0 STARLINK-4601,1 53617U 22104AF  23363.90764911  .00000556  00000-0  53012-4 0  9996,2 53617  53.2156 229.0085 0001496  64.4881 295.6265 15.08838031 74747,6917.886,95.438,540.786,538.716,0.0
53617.0,STARLINK-4601,PAYLOAD,2023-12-30 00:57:46,15.08843637,0.0001497,53.2154,228.4105,86.6405,273.4758,1.1139e-05,-1.11e-06,0.0,0 STARLINK-4601,1 53617U 22104AF  23364.04012551 -.00000111  00000-0  11139-4 0  9990,2 53617  53.2154 228.4105 0001497  86.6405 273.4758 15.08843637 74198,6917.869,95.437,540.77,538.699,0.0
53617.0,STARLINK-4601,PAYLOAD,2023-12-30 20:02:24,15.08838351,0.0001436,53.2153,224.8424,89.6353,270.4804,0.00021609,3.153e-05,0.0,0 STARLINK-4601,1 53617U 22104AF  23364.83501063  .00003153  00000-0  21609-3 0  9998,2 53617  53.2153 224.8424 0001436  89.6353 270.4804 15.08838351 74319,6917.885,95.438,540.744,538.757,0.0
53617.0,STARLINK-4601,PAYLOAD,2023-12-31 19:53:12,15.08837978,0.0001434,53.2152,220.3814,93.519,266.5967,5.2817e-05,5.53e-06,0.0,0 STARLINK-4601,1 53617U 22104AF  23365.82861196  .00000553  00000-0  52817-4 0  9991,2 53617  53.2152 220.3814 0001434  93.5190 266.5967 15.08837978 75033,6917.887,95.438,540.744,538.76,0.0
53617.0,STARLINK-4601,PAYLOAD,2024-01-01 14:57:49,15.08841552,0.0001425,53.2151,216.8125,96.0936,264.0218,8.8325e-05,1.118e-05,0.0,0 STARLINK-4601,1 53617U 22104AF  24001.62348977  .00001118  00000-0  88325-4 0  9995,2 53617  53.2151 216.8125 0001425  96.0936 264.0218 15.08841552 75151,6917.876,95.437,540.726,538.755,0.0
53617.0,STARLINK-4601,PAYLOAD,2024-01-01 19:43:58,15.08844249,0.0001378,53.2162,215.9205,97.8953,262.2196,0.00012129,1.643e-05,0.0,0 STARLINK-4601,1 53617U 22104AF  24001.82220843  .00001643  00000-0  12129-3 0  9999,2 53617  53.2162 215.9205 0001378  97.8953 262.2196 15.08844249 75181,6917.867,95.437,540.686,538.779,0.0
53617.0,STARLINK-4601,PAYLOAD,2024-01-02 00:30:08,15.08844485,0.0001374,53.2161,215.0286,96.3708,263.7441,0.00011563,1.553e-05,0.0,0 STARLINK-4601,1 53617U 22104AF  24002.02092824  .00001553  00000-0  11563-3 0  9999,2 53617  53.2161 215.0286 0001374  96.3708 263.7441 15.08844485 74649,6917.867,95.437,540.682,538.781,0.0
53617.0,STARLINK-4601,PAYLOAD,2024-01-02 19:34:46,15.08840826,0.0001369,53.2161,211.4598,96.5952,263.5196,9.59e-05,1.239e-05,0.0,0 STARLINK-4601,1 53617U 22104AF  24002.81581117  .00001239  00000-0  95900-4 0  9993,2 53617  53.2161 211.4598 0001369  96.5952 263.5196 15.08840826 74765,6917.878,95.438,540.69,538.796,0.0
53617.0,STARLINK-4601,PAYLOAD,2024-01-02 21:10:09,15.08840216,0.0001351,53.2161,211.1627,92.322,267.7926,8.462e-05,1.059e-05,0.0,0 STARLINK-4601,1 53617U 22104AF  24002.88205159  .00001059  00000-0  84620-4 0  9996,2 53617  53.2161 211.1627 0001351  92.3220 267.7926 15.08840216 75343,6917.88,95.438,540.679,538.81,0.0
53617.0,STARLINK-4601,PAYLOAD,2024-01-02 22:45:32,15.08840129,0.0001349,53.2161,210.8654,90.8317,269.283,8.0032e-05,9.86e-06,0.0,0 STARLINK-4601,1 53617U 22104AF  24002.94829172  .00000986  00000-0  80032-4 0  9991,2 53617  53.2161 210.8654 0001349  90.8317 269.2830 15.08840129 75351,6917.88,95.438,540.678,538.812,0.0
53617.0,STARLINK-4601,PAYLOAD,2024-01-03 21:00:56,15.08841549,0.0001357,53.2161,206.7021,91.7925,268.3223,3.0574e-05,1.99e-06,0.0,0 STARLINK-4601,1 53617U 22104AF  24003.87565182  .00000199  00000-0  30574-4 0  9994,2 53617  53.2161 206.7021 0001357  91.7925 268.3223 15.08841549 75495,6917.876,95.437,540.679,538.802,0.0
53617.0,STARLINK-4601,PAYLOAD,2024-01-04 12:54:47,15.08838428,0.0001396,53.2157,203.7295,86.5967,273.5185,4.2005e-05,3.81e-06,0.0,0 STARLINK-4601,1 53617U 22104AF  24004.53805389  .00000381  00000-0  42005-4 0  9999,2 53617  53.2157 203.7295 0001396  86.5967 273.5185 15.08838428 75599,6917.885,95.438,540.716,538.784,0.0
53617.0,STARLINK-4601,PAYLOAD,2024-01-04 19:16:20,15.08838806,0.0001392,53.2157,202.5401,86.8812,273.2339,4.9574e-05,5.01e-06,0.0,0 STARLINK-4601,1 53617U 22104AF  24004.80301355  .00000501  00000-0  49574-4 0  9995,2 53617  53.2157 202.5401 0001392  86.8812 273.2339 15.08838806 75636,6917.884,95.438,540.712,538.786,0.0
53617.0,STARLINK-4601,PAYLOAD,2024-01-05 09:34:48,15.08840561,0.0001432,53.2159,199.8639,81.6721,278.4433,7.9512e-05,9.78e-06,0.0,0 STARLINK-4601,1 53617U 22104AF  24005.39917250  .00000978  00000-0  79512-4 0  9990,2 53617  53.2159 199.8639 0001432  81.6721 278.4433 15.08840561 75156,6917.879,95.438,540.734,538.753,0.0
53617.0,STARLINK-4601,PAYLOAD,2024-01-05 22:17:53,15.08843662,0.0001444,53.2158,197.4849,81.8543,278.2613,9.5337e-05,1.23e-05,0.0,0 STARLINK-4601,1 53617U 22104AF  24005.92908997  .00001230  00000-0  95337-4 0  9992,2 53617  53.2158 197.4849 0001444  81.8543 278.2613 15.08843662 75804,6917.869,95.437,540.733,538.735,0.0
53617.0,STARLINK-4601,PAYLOAD,2024-01-06 18:57:54,15.08840823,0.0001414,53.216,193.6183,88.4909,271.6245,5.0974e-05,5.23e-06,0.0,0 STARLINK-4601,1 53617U 22104AF  24006.79021241  .00000523  00000-0  50974-4 0  9998,2 53617  53.2160 193.6183 0001414  88.4909 271.6245 15.08840823 75367,6917.878,95.438,540.721,538.765,0.0
53617.0,STARLINK-4601,PAYLOAD,2024-01-07 21:59:27,15.0883893,0.00014,53.2162,188.5628,95.1378,264.9774,1.212e-05,-9.5e-07,0.0,0 STARLINK-4601,1 53617U 22104AF  24007.91629410 -.00000095  00000-0  12120-4 0  9991,2 53617  53.2162 188.5628 0001400  95.1378 264.9774 15.08838930 76107,6917.884,95.438,540.717,538.78,0.0
53617.0,STARLINK-4601,PAYLOAD,2024-01-08 12:17:56,15.0883591,0.0001384,53.2162,185.8866,92.7993,267.3157,2.8951e-05,1.73e-06,0.0,0 STARLINK-4601,1 53617U 22104AF  24008.51245650  .00000173  00000-0  28951-4 0  9993,2 53617  53.2162 185.8866 0001384  92.7993 267.3157 15.08835910 76194,6917.893,95.438,540.715,538.8,0.0
53617.0,STARLINK-4601,PAYLOAD,2024-01-08 18:39:28,15.08837017,0.0001356,53.2162,184.6969,95.2499,264.8647,3.2014e-05,2.22e-06,0.0,0 STARLINK-4601,1 53617U 22104AF  24008.77741609  .00000222  00000-0  32014-4 0  9996,2 53617  53.2162 184.6969 0001356  95.2499 264.8647 15.08837017 76234,6917.89,95.438,540.693,538.816,0.0
53617.0,STARLINK-4601,PAYLOAD,2024-01-09 10:33:20,15.08836451,0.000134,53.2162,181.7233,96.3884,263.726,5.0085e-05,5.09e-06,0.0,0 STARLINK-4601,1 53617U 22104AF  24009.43981738  .00000509  00000-0  50085-4 0  9995,2 53617  53.2162 181.7233 0001340  96.3884 263.7260 15.08836451 75766,6917.891,95.438,540.683,538.829,0.0
53617.0,STARLINK-4601,PAYLOAD,2024-01-09 16:54:52,15.08839336,0.0001317,53.2163,180.5344,93.1724,266.9419,6.6955e-05,7.78e-06,0.0,0 STARLINK-4601,1 53617U 22104AF  24009.70477576  .00000778  00000-0  66955-4 0  9996,2 53617  53.2163 180.5344 0001317  93.1724 266.9419 15.08839336 76373,6917.882,95.438,540.659,538.836,0.0
53617.0,STARLINK-4601,PAYLOAD,2024-01-10 18:21:02,15.08842681,0.0001288,53.2164,175.7774,79.0273,281.0864,9.1387e-05,1.167e-05,0.0,0 STARLINK-4601,1 53617U 22104AF  24010.76461494  .00001167  00000-0  91387-4 0  9996,2 53617  53.2164 175.7774 0001288  79.0273 281.0864 15.08842681 75969,6917.872,95.437,540.628,538.846,0.0
